COMMENT,ORIGINATOR,NORAD_CAT_ID,OBJECT_NAME,OBJECT_TYPE,CLASSIFICATION_TYPE,INTLDES,EPOCH,EPOCH_MICROSECONDS,MEAN_MOTION,ECCENTRICITY,INCLINATION,RA_OF_ASC_NODE,ARG_OF_PERICENTER,MEAN_ANOMALY,EPHEMERIS_TYPE,ELEMENT_SET_NO,REV_AT_EPOCH,BSTAR,MEAN_MOTION_DOT,MEAN_MOTION_DDOT,FILE,TLE_LINE0,TLE_LINE1,TLE_LINE2,OBJECT_ID,OBJECT_NUMBER,SEMIMAJOR_AXIS,PERIOD,APOGEE,PERIGEE,DECAYED
"GENERATED VIA SPACETRACK.ORG API","18 SPCS","55087","SPACEBEE-167","PAYLOAD","U","23001CG","2023-10-10 17:23:56","486112","15.23981685","0.0012162","97.4638","342.8801","323.1083","36.9316","0","999","4266","0.0014388","0.0003496","0","4030441","0 SPACEBEE-167","1 55087U 23001CG  23283.72495933  .00034960  00000-0  14388-2 0  9999","2 55087  97.4638 342.8801 0012162 323.1083  36.9316 15.23981685 42666","2023-001CG","55087","6871.982","94.489","502.205","485.489","0"
"GENERATED VIA SPACETRACK.ORG API","18 SPCS","55087","SPACEBEE-167","PAYLOAD","U","23001CG","2023-10-11 10:43:58","318464","15.2402929","0.0012159","97.4642","343.5987","320.4632","39.5717","0","999","4277","0.0013414","0.00032625","0","4031093","0 SPACEBEE-167","1 55087U 23001CG  23284.44720276  .00032625  00000-0  13414-2 0  9995","2 55087  97.4642 343.5987 0012159 320.4632  39.5717 15.24029290 42772","2023-001CG","55087","6871.839","94.486","502.059","485.348","0"
"GENERATED VIA SPACETRACK.ORG API","18 SPCS","55087","SPACEBEE-167","PAYLOAD","U","23001CG","2023-10-12 04:03:58","168800","15.24078735","0.0012018","97.4639","344.3175","318.1011","41.9305","0","999","4288","0.001345","0.0003276","0","4031712","0 SPACEBEE-167","1 55087U 23001CG  23285.16942325  .00032760  00000-0  13450-2 0  9996","2 55087  97.4639 344.3175 0012018 318.1011  41.9305 15.24078735 42885","2023-001CG","55087","6871.690","94.483","501.814","485.297","0"
"GENERATED VIA SPACETRACK.ORG API","18 SPCS","55087","SPACEBEE-167","PAYLOAD","U","23001CG","2023-10-12 10:22:08","525568","15.24096052","0.0011981","97.4639","344.5789","317.1746","42.8557","0","999","4292","0.0013391","0.00032631","0","4031907","0 SPACEBEE-167","1 55087U 23001CG  23285.43204312  .00032631  00000-0  13391-2 0  9994","2 55087  97.4639 344.5789 0011981 317.1746  42.8557 15.24096052 42926","2023-001CG","55087","6871.638","94.482","501.736","485.270","0"
"GENERATED VIA SPACETRACK.ORG API","18 SPCS","55087","SPACEBEE-167","PAYLOAD","U","23001CG","2023-10-12 16:40:18","638688","15.24113161","0.0011959","97.4638","344.8403","316.1655","43.8633","0","999","4296","0.0012911","0.0003147","0","4032297","0 SPACEBEE-167","1 55087U 23001CG  23285.69466017  .00031470  00000-0  12911-2 0  9991","2 55087  97.4638 344.8403 0011959 316.1655  43.8633 15.24113161 42965","2023-001CG","55087","6871.587","94.481","501.669","485.234","0"
"GENERATED VIA SPACETRACK.ORG API","18 SPCS","55087","SPACEBEE-167","PAYLOAD","U","23001CG","2023-10-13 03:42:05","724288","15.2414222","0.0011942","97.4635","345.2979","314.3814","45.6444","0","999","4303","0.001288","0.00031421","0","4032919","0 SPACEBEE-167","1 55087U 23001CG  23286.15423292  .00031421  00000-0  12880-2 0  9992","2 55087  97.4635 345.2979 0011942 314.3814  45.6444 15.24142220 43031","2023-001CG","55087","6871.499","94.479","501.570","485.158","0"
"GENERATED VIA SPACETRACK.ORG API","18 SPCS","55087","SPACEBEE-167","PAYLOAD","U","23001CG","2023-10-13 17:52:56","430912","15.24188638","0.0011943","97.4632","345.8861","311.947","48.0749","0","999","4312","0.0015613","0.00038191","0","4033160","0 SPACEBEE-167","1 55087U 23001CG  23286.74509758  .00038191  00000-0  15613-2 0  9997","2 55087  97.4632 345.8861 0011943 311.9470  48.0749 15.24188638 43124","2023-001CG","55087","6871.360","94.476","501.431","485.018","0"
"GENERATED VIA SPACETRACK.ORG API","18 SPCS","55087","SPACEBEE-167","PAYLOAD","U","23001CG","2023-10-13 17:52:56","430912","15.24188638","0.0011943","97.4632","345.8861","311.947","48.0749","0","999","4312","0.0015613","0.00038191","0","4033175","0 SPACEBEE-167","1 55087U 23001CG  23286.74509758  .00038191  00000-0  15613-2 0  9997","2 55087  97.4632 345.8861 0011943 311.9470  48.0749 15.24188638 43124","2023-001CG","55087","6871.360","94.476","501.431","485.018","0"
"GENERATED VIA SPACETRACK.ORG API","18 SPCS","55087","SPACEBEE-167","PAYLOAD","U","23001CG","2023-10-14 09:38:17","598048","15.24238348","0.0011929","97.4628","346.5397","309.3244","50.6935","0","999","4322","0.0014918","0.00036533","0","4033811","0 SPACEBEE-167","1 55087U 23001CG  23287.40159257  .00036533  00000-0  14918-2 0  9991","2 55087  97.4628 346.5397 0011929 309.3244  50.6935 15.24238348 43226","2023-001CG","55087","6871.210","94.473","501.272","484.879","0"
"GENERATED VIA SPACETRACK.ORG API","18 SPCS","55087","SPACEBEE-167","PAYLOAD","U","23001CG","2023-10-14 14:21:53","630496","15.24250577","0.0011929","97.4627","346.7357","308.5644","51.4523","0","999","4325","0.0013476","0.00032991","0","4034164","0 SPACEBEE-167","1 55087U 23001CG  23287.59853739  .00032991  00000-0  13476-2 0  9999","2 55087  97.4627 346.7357 0011929 308.5644  51.4523 15.24250577 43251","2023-001CG","55087","6871.174","94.473","501.235","484.842","0"
"GENERATED VIA SPACETRACK.ORG API","18 SPCS","55087","SPACEBEE-167","PAYLOAD","U","23001CG","2023-10-15 02:58:09","45984","15.24284264","0.0011955","97.4626","347.2586","306.6501","53.3637","0","999","4333","0.0013608","0.0003335","0","4034442","0 SPACEBEE-167","1 55087U 23001CG  23288.12371581  .00033350  00000-0  13608-2 0  9996","2 55087  97.4626 347.2586 0011955 306.6501  53.3637 15.24284264 43336","2023-001CG","55087","6871.072","94.471","501.152","484.723","0"
"GENERATED VIA SPACETRACK.ORG API","18 SPCS","55087","SPACEBEE-167","PAYLOAD","U","23001CG","2023-10-15 09:16:16","432320","15.24297867","0.0012011","97.4626","347.5202","305.8621","54.15","0","999","4337","0.0012816","0.0003141","0","4034787","0 SPACEBEE-167","1 55087U 23001CG  23288.38630130  .00031410  00000-0  12816-2 0  9997","2 55087  97.4626 347.5202 0012011 305.8621  54.1500 15.24297867 43377","2023-001CG","55087","6871.032","94.470","501.149","484.644","0"
"GENERATED VIA SPACETRACK.ORG API","18 SPCS","55087","SPACEBEE-167","PAYLOAD","U","23001CG","2023-10-15 17:08:55","360032","15.24314061","0.0011919","97.4624","347.8468","304.5776","55.4336","0","999","4342","0.0011203","0.00027446","0","4035078","0 SPACEBEE-167","1 55087U 23001CG  23288.71452963  .00027446  00000-0  11203-2 0  9993","2 55087  97.4624 347.8468 0011919 304.5776  55.4336 15.24314061 43428","2023-001CG","55087","6870.983","94.469","501.037","484.658","0"
"GENERATED VIA SPACETRACK.ORG API","18 SPCS","55087","SPACEBEE-167","PAYLOAD","U","23001CG","2023-10-16 02:36:05","634720","15.24336493","0.0011926","97.4622","348.2387","303.279","56.7304","0","999","4348","0.0011779","0.00028886","0","4035512","0 SPACEBEE-167","1 55087U 23001CG  23289.10839855  .00028886  00000-0  11779-2 0  9993","2 55087  97.4622 348.2387 0011926 303.2790  56.7304 15.24336493 43489","2023-001CG","55087","6870.916","94.467","500.975","484.586","0"
"GENERATED VIA SPACETRACK.ORG API","18 SPCS","55087","SPACEBEE-167","PAYLOAD","U","23001CG","2023-10-16 10:28:43","834080","15.24353544","0.0011902","97.4621","348.5653","301.9533","58.0546","0","999","4353","0.0011522","0.00028266","0","4036830","0 SPACEBEE-167","1 55087U 23001CG  23289.43661845  .00028266  00000-0  11522-2 0  9999","2 55087  97.4621 348.5653 0011902 301.9533  58.0546 15.24353544 43536","2023-001CG","55087","6870.864","94.466","500.907","484.552","0"
"GENERATED VIA SPACETRACK.ORG API","18 SPCS","55087","SPACEBEE-167","PAYLOAD","U","23001CG","2023-10-16 16:46:50","220768","15.24365291","0.0011806","97.4619","348.8267","300.8032","59.2043","0","999","4357","0.0010741","0.00026346","0","4037312","0 SPACEBEE-167","1 55087U 23001CG  23289.69919237  .00026346  00000-0  10741-2 0  9997","2 55087  97.4619 348.8267 0011806 300.8032  59.2043 15.24365291 43573","2023-001CG","55087","6870.829","94.466","500.806","484.582","0"
"GENERATED VIA SPACETRACK.ORG API","18 SPCS","55087","SPACEBEE-167","PAYLOAD","U","23001CG","2023-10-17 10:06:36","588384","15.24401262","0.0011771","97.4611","349.5458","297.745","62.2593","0","999","4368","0.0009879","0.00024245","0","4038796","0 SPACEBEE-167","1 55087U 23001CG  23290.42125681  .00024245  00000-0  98790-3 0  9999","2 55087  97.4611 349.5458 0011771 297.7450  62.2593 15.24401262 43689","2023-001CG","55087","6870.721","94.463","500.673","484.498","0"
"GENERATED VIA SPACETRACK.ORG API","18 SPCS","55087","SPACEBEE-167","PAYLOAD","U","23001CG","2023-10-17 10:06:36","588384","15.24401262","0.0011771","97.4611","349.5458","297.745","62.2593","0","999","4368","0.0009879","0.00024245","0","4039107","0 SPACEBEE-167","1 55087U 23001CG  23290.42125681  .00024245  00000-0  98790-3 0  9999","2 55087  97.4611 349.5458 0011771 297.7450  62.2593 15.24401262 43689","2023-001CG","55087","6870.721","94.463","500.673","484.498","0"
"GENERATED VIA SPACETRACK.ORG API","18 SPCS","55087","SPACEBEE-167","PAYLOAD","U","23001CG","2023-10-18 01:51:50","305248","15.24435002","0.0011788","97.4609","350.1995","295.2325","64.769","0","999","4378","0.0011625","0.00028588","0","4040140","0 SPACEBEE-167","1 55087U 23001CG  23291.07766557  .00028588  00000-0  11625-2 0  9999","2 55087  97.4609 350.1995 0011788 295.2325  64.7690 15.24435002 43787","2023-001CG","55087","6870.620","94.461","500.584","484.385","0"
"GENERATED VIA SPACETRACK.ORG API","18 SPCS","55087","SPACEBEE-167","PAYLOAD","U","23001CG","2023-10-18 14:28:00","407136","15.24459388","0.0011797","97.4607","350.7219","292.9792","67.0201","0","999","4386","0.0010913","0.00026846","0","4040431","0 SPACEBEE-167","1 55087U 23001CG  23291.60278249  .00026846  00000-0  10913-2 0  9998","2 55087  97.4607 350.7219 0011797 292.9792  67.0201 15.24459388 43868","2023-001CG","55087","6870.546","94.460","500.516","484.306","0"
